NORAD_CAT_ID,OBJECT_NAME,OBJECT_TYPE,EPOCH,MEAN_MOTION,ECCENTRICITY,INCLINATION,RA_OF_ASC_NODE,ARG_OF_PERICENTER,MEAN_ANOMALY,BSTAR,MEAN_MOTION_DOT,MEAN_MOTION_DDOT,TLE_LINE0,TLE_LINE1,TLE_LINE2,SEMIMAJOR_AXIS,PERIOD,APOGEE,PERIGEE,DECAYED
53834.0,STARLINK-4737,PAYLOAD,2023-05-07 16:26:57,15.08840446,0.0001355,53.2151,279.084,80.3144,279.8001,0.00026619,3.951e-05,0.0,0 STARLINK-4737,1 53834U 22114S   23127.68539019  .00003951  00000-0  26619-3 0  9994,2 53834  53.2151 279.0840 0001355  80.3144 279.8001 15.08840446 35742,6917.879,95.438,540.681,538.807,0.0
53834.0,STARLINK-4737,PAYLOAD,2023-05-08 19:28:30,15.08858111,0.0001225,53.2164,274.0272,83.4163,276.6968,0.00058376,9.019e-05,0.0,0 STARLINK-4737,1 53834U 22114S   23128.81146571  .00009019  00000-0  58376-3 0  9993,2 53834  53.2164 274.0272 0001225  83.4163 276.6968 15.08858111 35915,6917.825,95.436,540.537,538.843,0.0
53834.0,STARLINK-4737,PAYLOAD,2023-05-09 12:57:45,15.08847143,0.0001219,53.216,270.7562,77.7792,282.3337,0.00028741,4.29e-05,0.0,0 STARLINK-4737,1 53834U 22114S   23129.54010888  .00004290  00000-0  28741-3 0  9994,2 53834  53.2160 270.7562 0001219  77.7792 282.3337 15.08847143 36562,6917.859,95.437,540.567,538.88,0.0
53834.0,STARLINK-4737,PAYLOAD,2023-05-10 12:48:32,15.08841669,0.0001074,53.216,266.297,92.5965,267.515,0.00077261,0.0001203,0.0,0 STARLINK-4737,1 53834U 22114S   23130.53370955  .00012030  00000-0  77261-3 0  9991,2 53834  53.2160 266.2970 0001074  92.5965 267.5150 15.08841669 36713,6917.875,95.437,540.483,538.997,0.0
53834.0,STARLINK-4737,PAYLOAD,2023-05-10 19:10:04,15.08862778,0.0001115,53.2162,265.1078,98.5106,261.6012,0.0016062,0.00025383,0.0,0 STARLINK-4737,1 53834U 22114S   23130.79866642  .00025383  00000-0  16062-2 0  9998,2 53834  53.2162 265.1078 0001115  98.5106 261.6012 15.08862778 36212,6917.811,95.436,540.447,538.904,0.0
53834.0,STARLINK-4737,PAYLOAD,2023-05-11 01:31:37,15.08856245,0.0001205,53.216,263.918,92.949,267.164,0.00093876,0.00014691,0.0,0 STARLINK-4737,1 53834U 22114S   23131.06362711  .00014691  00000-0  93876-3 0  9996,2 53834  53.2160 263.9180 0001205  92.9490 267.1640 15.08856245 36258,6917.831,95.437,540.529,538.862,0.0
53834.0,STARLINK-4737,PAYLOAD,2023-05-11 14:14:42,15.0884172,0.0001478,53.217,261.5459,110.2539,249.8612,0.00048736,7.477e-05,0.0,0 STARLINK-4737,1 53834U 22114S   23131.59354890  .00007477  00000-0  48736-3 0  9992,2 53834  53.2170 261.5459 0001478 110.2539 249.8612 15.08841720 36339,6917.875,95.437,540.763,538.718,0.0
53834.0,STARLINK-4737,PAYLOAD,2023-05-12 01:22:24,15.08837669,0.0001379,53.2161,259.4631,108.4592,251.655,0.00018829,2.71e-05,0.0,0 STARLINK-4737,1 53834U 22114S   23132.05723016  .00002710  00000-0  18829-3 0  9999,2 53834  53.2161 259.4631 0001379 108.4592 251.6550 15.08837669 36402,6917.888,95.438,540.706,538.799,0.0
53834.0,STARLINK-4737,PAYLOAD,2023-05-12 15:40:52,15.08840362,0.0001305,53.2163,256.7855,100.6722,259.4417,0.00011793,1.589e-05,0.0,0 STARLINK-4737,1 53834U 22114S   23132.65339090  .00001589  00000-0  11793-3 0  9996,2 53834  53.2163 256.7855 0001305 100.6722 259.4417 15.08840362 37032,6917.879,95.438,540.647,538.841,0.0
53834.0,STARLINK-4737,PAYLOAD,2023-05-13 12:20:53,15.08843443,0.0001533,53.2151,252.9172,79.3432,280.7733,0.00020329,2.949e-05,0.0,0 STARLINK-4737,1 53834U 22114S   23133.51451129  .00002949  00000-0  20329-3 0  9996,2 53834  53.2151 252.9172 0001533  79.3432 280.7733 15.08843443 37167,6917.87,95.437,540.795,538.674,0.0
53834.0,STARLINK-4737,PAYLOAD,2023-05-13 13:56:16,15.08843978,0.0001511,53.2153,252.6158,79.6291,280.4872,0.00019097,2.753e-05,0.0,0 STARLINK-4737,1 53834U 22114S   23133.58075061  .00002753  00000-0  19097-3 0  9993,2 53834  53.2153 252.6158 0001511  79.6291 280.4872 15.08843978 36637,6917.868,95.437,540.779,538.688,0.0
53834.0,STARLINK-4737,PAYLOAD,2023-05-13 15:31:39,15.08844423,0.0001517,53.2152,252.3185,79.3608,280.7554,0.00019475,2.813e-05,0.0,0 STARLINK-4737,1 53834U 22114S   23133.64699043  .00002813  00000-0  19475-3 0  9999,2 53834  53.2152 252.3185 0001517  79.3608 280.7554 15.08844423 37185,6917.867,95.437,540.781,538.682,0.0
53834.0,STARLINK-4737,PAYLOAD,2023-05-14 13:47:04,15.08838238,0.0001234,53.2153,248.1569,83.7657,276.3476,-1.2234e-06,-3.07e-06,0.0,0 STARLINK-4737,1 53834U 22114S   23134.57435365 -.00000307  00000-0 -12234-5 0  9993,2 53834  53.2153 248.1569 0001234  83.7657 276.3476 15.08838238 36780,6917.886,95.438,540.604,538.897,0.0
53834.0,STARLINK-4737,PAYLOAD,2023-05-15 13:37:51,15.08842128,9.88e-05,53.2144,243.6997,80.2097,279.9007,0.00015154,2.125e-05,0.0,0 STARLINK-4737,1 53834U 22114S   23135.56795350  .00002125  00000-0  15154-3 0  9996,2 53834  53.2144 243.6997 0000988  80.2097 279.9007 15.08842128 37479,6917.874,95.437,540.422,539.055,0.0
53834.0,STARLINK-4737,PAYLOAD,2023-05-15 16:48:37,15.0884597,0.0001068,53.2152,243.1014,101.4609,258.6503,0.00011409,1.529e-05,0.0,0 STARLINK-4737,1 53834U 22114S   23135.70043088  .00001529  00000-0  11409-3 0  9992,2 53834  53.2152 243.1014 0001068 101.4609 258.6503 15.08845970 36953,6917.862,95.437,540.466,538.988,0.0
53834.0,STARLINK-4737,PAYLOAD,2023-05-16 13:28:38,15.08837359,0.0001286,53.2163,239.2316,107.0935,253.0198,8.9074e-05,1.13e-05,0.0,0 STARLINK-4737,1 53834U 22114S   23136.56155734  .00001130  00000-0  89074-4 0  9991,2 53834  53.2163 239.2316 0001286 107.0935 253.0198 15.08837359 37088,6917.888,95.438,540.643,538.864,0.0
53834.0,STARLINK-4737,PAYLOAD,2023-05-16 16:39:25,15.08831587,0.0001259,53.216,238.6386,107.9286,252.1844,0.0002521,3.726e-05,0.0,0 STARLINK-4737,1 53834U 22114S   23136.69404086  .00003726  00000-0  25210-3 0  9996,2 53834  53.2160 238.6386 0001259 107.9286 252.1844 15.08831587 37640,6917.906,95.438,540.642,538.9,0.0
53834.0,STARLINK-4737,PAYLOAD,2023-05-17 13:19:25,15.08844245,0.0001198,53.2166,234.773,111.9457,248.1662,6.5662e-05,7.57e-06,0.0,0 STARLINK-4737,1 53834U 22114S   23137.55515431  .00000757  00000-0  65662-4 0  9996,2 53834  53.2166 234.7730 0001198 111.9457 248.1662 15.08844245 37775,6917.867,95.437,540.561,538.904,0.0
53834.0,STARLINK-4737,PAYLOAD,2023-05-17 22:51:44,15.08839918,0.0001103,53.2163,232.9907,90.7116,269.4002,4.115e-05,3.67e-06,0.0,0 STARLINK-4737,1 53834U 22114S   23137.95259831  .00000367  00000-0  41150-4 0  9992,2 53834  53.2163 232.9907 0001103  90.7116 269.4002 15.08839918 37292,6917.881,95.438,540.509,538.983,0.0
53834.0,STARLINK-4737,PAYLOAD,2023-05-18 11:34:49,15.08845222,0.0001074,53.2156,230.6135,86.1604,273.9511,0.00011832,1.596e-05,0.0,0 STARLINK-4737,1 53834U 22114S   23138.48251374  .00001596  00000-0  11832-3 0  9993,2 53834  53.2156 230.6135 0001074  86.1604 273.9511 15.08845222 37919,6917.864,95.437,540.472,538.986,0.0
53834.0,STARLINK-4737,PAYLOAD,2023-05-18 14:45:35,15.08848222,0.0001068,53.2155,230.0187,89.5789,270.5325,0.00013862,1.919e-05,0.0,0 STARLINK-4737,1 53834U 22114S   23138.61499091  .00001919  00000-0  13862-3 0  9992,2 53834  53.2155 230.0187 0001068  89.5789 270.5325 15.08848222 37394,6917.855,95.437,540.459,538.981,0.0
53834.0,STARLINK-4737,PAYLOAD,2023-05-18 22:42:31,15.08844512,9.87e-05,53.2155,228.5322,86.1308,273.9797,7.0637e-05,8.37e-06,0.0,0 STARLINK-4737,1 53834U 22114S   23138.94619377  .00000837  00000-0  70637-4 0  9991,2 53834  53.2155 228.5322 0000987  86.1308 273.9797 15.08844512 37440,6917.867,95.437,540.414,539.049,0.0
53834.0,STARLINK-4737,PAYLOAD,2023-05-19 09:50:13,15.08835538,0.0001129,53.2158,226.4516,82.4533,277.6588,-1.7002e-05,-5.58e-06,0.0,0 STARLINK-4737,1 53834U 22114S   23139.40988387 -.00000558  00000-0 -17002-4 0  9992,2 53834  53.2158 226.4516 0001129  82.4533 277.6588 15.08835538 37518,6917.894,95.438,540.54,538.978,0.0
53834.0,STARLINK-4737,PAYLOAD,2023-05-19 19:22:34,15.0877046,0.0001531,53.2165,224.6681,82.0071,278.1095,0.0010916,0.00017094,0.0,0 STARLINK-4737,1 53834U 22114S   23139.80734724  .00017094  00000-0  10916-2 0  9996,2 53834  53.2165 224.6681 0001531  82.0071 278.1095 15.08770460 38117,6918.093,95.442,541.017,538.899,0.0
53834.0,STARLINK-4737,PAYLOAD,2023-05-20 09:41:00,15.08846201,0.0001007,53.2158,221.9897,90.1672,269.9436,7.2266e-05,8.63e-06,0.0,0 STARLINK-4737,1 53834U 22114S   23140.40347537  .00000863  00000-0  72266-4 0  9990,2 53834  53.2158 221.9897 0001007  90.1672 269.9436 15.08846201 37666,6917.861,95.437,540.423,539.03,0.0
53834.0,STARLINK-4737,PAYLOAD,2023-05-20 12:51:45,15.0885589,0.0001006,53.2162,221.3931,83.6771,276.4336,9.3138e-05,1.195e-05,0.0,0 STARLINK-4737,1 53834U 22114S   23140.53594817  .00001195  00000-0  93138-4 0  9999,2 53834  53.2162 221.3931 0001006  83.6771 276.4336 15.08855890 37688,6917.832,95.437,540.393,539.001,0.0
53834.0,STARLINK-4737,PAYLOAD,2023-05-20 23:59:28,15.08847265,0.000138,53.2152,219.3157,81.044,279.0708,0.00015617,2.199e-05,0.0,0 STARLINK-4737,1 53834U 22114S   23140.99963223  .00002199  00000-0  15617-3 0  9990,2 53834  53.2152 219.3157 0001380  81.0440 279.0708 15.08847265 37751,6917.858,95.437,540.678,538.769,0.0
53834.0,STARLINK-4737,PAYLOAD,2023-05-21 11:07:10,15.08839092,0.0001059,53.2149,217.2318,84.3298,275.7815,6.603e-05,7.63e-06,0.0,0 STARLINK-4737,1 53834U 22114S   23141.46331570  .00000763  00000-0  66030-4 0  9998,2 53834  53.2149 217.2318 0001059  84.3298 275.7815 15.08839092 38362,6917.883,95.438,540.481,539.016,0.0
53834.0,STARLINK-4737,PAYLOAD,2023-05-21 12:42:33,15.08840259,0.0001198,53.2155,216.9369,76.4503,283.6623,9.9092e-05,1.29e-05,0.0,0 STARLINK-4737,1 53834U 22114S   23141.52955582  .00001290  00000-0  99092-4 0  9990,2 53834  53.2155 216.9369 0001198  76.4503 283.6623 15.08840259 37839,6917.88,95.438,540.573,538.916,0.0
53834.0,STARLINK-4737,PAYLOAD,2023-05-21 22:14:52,15.0883778,0.0001135,53.2154,215.1529,79.4746,280.6374,1.1099e-05,-1.11e-06,0.0,0 STARLINK-4737,1 53834U 22114S   23141.92699711 -.00000111  00000-0  11099-4 0  9996,2 53834  53.2154 215.1529 0001135  79.4746 280.6374 15.08837780 38432,6917.887,95.438,540.537,538.967,0.0
